[{"OBJECT_NAME":"HAWK-A","OBJECT_ID":"2018-099H","EPOCH":"2026-03-09T16:13:51.062880","MEAN_MOTION":15.23231043,"ECCENTRICITY":0.00342596,"INCLINATION":97.4051,"RA_OF_ASC_NODE":122.2425,"ARG_OF_PERICENTER":275.5523,"MEAN_ANOMALY":84.1807,"EPHEMERIS_TYPE":0,"CLASSIFICATION_TYPE":"U","NORAD_CAT_ID":43765,"ELEMENT_SET_NO":999,"REV_AT_EPOCH":39794,"BSTAR":0.00036104215,"MEAN_MOTION_DOT":8.617e-5,"MEAN_MOTION_DDOT":0},{"OBJECT_NAME":"OBJECT C","OBJECT_ID":"2024-094C","EPOCH":"2026-03-09T23:40:22.800864","MEAN_MOTION":15.16350553,"ECCENTRICITY":0.0005615,"INCLINATION":97.3999,"RA_OF_ASC_NODE":142.6319,"ARG_OF_PERICENTER":209.4203,"MEAN_ANOMALY":150.6715,"EPHEMERIS_TYPE":0,"CLASSIFICATION_TYPE":"U","NORAD_CAT_ID":59807,"ELEMENT_SET_NO":999,"REV_AT_EPOCH":10012,"BSTAR":0.00045742528,"MEAN_MOTION_DOT":8.815e-5,"MEAN_MOTION_DDOT":0}]
